[{"OBJECT_NAME":"STARLINK-31424","OBJECT_ID":"2024-049S","EPOCH":"2026-03-09T06:44:09.395520","MEAN_MOTION":15.27569142,"ECCENTRICITY":0.00016022,"INCLINATION":43.0004,"RA_OF_ASC_NODE":142.3688,"ARG_OF_PERICENTER":293.1719,"MEAN_ANOMALY":66.8964,"EPHEMERIS_TYPE":0,"CLASSIFICATION_TYPE":"U","NORAD_CAT_ID":59247,"ELEMENT_SET_NO":999,"REV_AT_EPOCH":11237,"BSTAR":5.6209495e-5,"MEAN_MOTION_DOT":1.284e-5,"MEAN_MOTION_DDOT":0},{"OBJECT_NAME":"EDISON-1","OBJECT_ID":"2025-009B","EPOCH":"2026-03-09T19:16:13.822464","MEAN_MOTION":15.29042904,"ECCENTRICITY":0.00043285,"INCLINATION":97.4042,"RA_OF_ASC_NODE":151.6286,"ARG_OF_PERICENTER":306.4185,"MEAN_ANOMALY":53.6655,"EPHEMERIS_TYPE":0,"CLASSIFICATION_TYPE":"U","NORAD_CAT_ID":62610,"ELEMENT_SET_NO":999,"REV_AT_EPOCH":6375,"BSTAR":0.00052814963,"MEAN_MOTION_DOT":0.00014835,"MEAN_MOTION_DDOT":0}]
